{
  "type": "FeatureCollection",
  "name": "crz_tn",
  "crs": {
    "type": "name",
    "properties": { "name": "urn:ogc:def:crs:OGC:1.3:CRS84" }
  },
  "features": [
    {
      "type": "Feature",
      "properties": {
        "zone_type": "CRZ-I",
        "description": "Ecologically sensitive areas — No construction permitted",
        "regulation": "No development activity permitted"
      },
      "geometry": {
        "type": "Polygon",
        "coordinates": [[
          [80.25, 8.07], [80.30, 8.07], [80.32, 8.50],
          [80.28, 8.80], [80.20, 8.80], [80.18, 8.50],
          [80.25, 8.07]
        ]]
      }
    },
    {
      "type": "Feature",
      "properties": {
        "zone_type": "CRZ-I",
        "description": "Mangrove and tidal wetland zone near Pichavaram",
        "regulation": "No development activity permitted"
      },
      "geometry": {
        "type": "Polygon",
        "coordinates": [[
          [79.75, 11.40], [79.82, 11.40], [79.85, 11.42],
          [79.85, 11.48], [79.75, 11.48], [79.72, 11.44],
          [79.75, 11.40]
        ]]
      }
    },
    {
      "type": "Feature",
      "properties": {
        "zone_type": "CRZ-II",
        "description": "Developed coastal urban area — Regulated construction",
        "regulation": "Floor Space Index (FSI) restrictions apply"
      },
      "geometry": {
        "type": "Polygon",
        "coordinates": [[
          [80.28, 13.00], [80.32, 13.00], [80.35, 13.10],
          [80.32, 13.20], [80.28, 13.20], [80.25, 13.10],
          [80.28, 13.00]
        ]]
      }
    },
    {
      "type": "Feature",
      "properties": {
        "zone_type": "CRZ-II",
        "description": "Coastal urban area — Chennai Marina zone",
        "regulation": "Regulated development within 200m of HTL"
      },
      "geometry": {
        "type": "Polygon",
        "coordinates": [[
          [80.26, 13.04], [80.30, 13.04], [80.30, 13.25],
          [80.26, 13.25], [80.24, 13.15], [80.26, 13.04]
        ]]
      }
    },
    {
      "type": "Feature",
      "properties": {
        "zone_type": "CRZ-III",
        "description": "Rural coastal area — Limited development allowed",
        "regulation": "No permanent structure within 200m of HTL"
      },
      "geometry": {
        "type": "Polygon",
        "coordinates": [[
          [80.15, 11.50], [80.25, 11.50], [80.30, 12.00],
          [80.25, 12.50], [80.15, 12.50], [80.10, 12.00],
          [80.15, 11.50]
        ]]
      }
    },
    {
      "type": "Feature",
      "properties": {
        "zone_type": "CRZ-III",
        "description": "Rural coastal area — Southern TN coast",
        "regulation": "No permanent structure within 200m of HTL"
      },
      "geometry": {
        "type": "Polygon",
        "coordinates": [[
          [78.10, 8.15], [78.25, 8.15], [78.30, 8.30],
          [78.25, 8.50], [78.10, 8.50], [78.05, 8.30],
          [78.10, 8.15]
        ]]
      }
    },
    {
      "type": "Feature",
      "properties": {
        "zone_type": "CRZ-IV",
        "description": "Andaman and island waters — backwater area",
        "regulation": "Special regulations for island territories"
      },
      "geometry": {
        "type": "Polygon",
        "coordinates": [[
          [79.80, 9.10], [79.90, 9.10], [79.95, 9.20],
          [79.90, 9.30], [79.80, 9.30], [79.75, 9.20],
          [79.80, 9.10]
        ]]
      }
    }
  ]
}
