{
  "type": "FeatureCollection",
  "name": "waterbodies_fallback",
  "crs": {
    "type": "name",
    "properties": { "name": "urn:ogc:def:crs:OGC:1.3:CRS84" }
  },
  "features": [
    {
      "type": "Feature",
      "properties": {
        "name": "Chembarambakkam Lake",
        "wb_name": "Chembarambakkam Lake",
        "type": "Reservoir"
      },
      "geometry": {
        "type": "Polygon",
        "coordinates": [[
          [79.985, 13.075], [80.015, 13.075], [80.020, 13.055],
          [80.010, 13.040], [79.990, 13.040], [79.980, 13.055],
          [79.985, 13.075]
        ]]
      }
    },
    {
      "type": "Feature",
      "properties": {
        "name": "Poondi Reservoir",
        "wb_name": "Poondi Reservoir",
        "type": "Reservoir"
      },
      "geometry": {
        "type": "Polygon",
        "coordinates": [[
          [79.95, 13.38], [79.98, 13.38], [79.99, 13.35],
          [79.98, 13.32], [79.95, 13.32], [79.94, 13.35],
          [79.95, 13.38]
        ]]
      }
    },
    {
      "type": "Feature",
      "properties": {
        "name": "Veeranam Lake",
        "wb_name": "Veeranam Lake",
        "type": "Lake"
      },
      "geometry": {
        "type": "Polygon",
        "coordinates": [[
          [79.50, 11.30], [79.65, 11.30], [79.70, 11.25],
          [79.65, 11.20], [79.50, 11.20], [79.45, 11.25],
          [79.50, 11.30]
        ]]
      }
    },
    {
      "type": "Feature",
      "properties": {
        "name": "Krishnagiri Reservoir",
        "wb_name": "Krishnagiri Reservoir",
        "type": "Reservoir"
      },
      "geometry": {
        "type": "Polygon",
        "coordinates": [[
          [78.18, 12.55], [78.28, 12.55], [78.32, 12.50],
          [78.28, 12.45], [78.18, 12.45], [78.14, 12.50],
          [78.18, 12.55]
        ]]
      }
    },
    {
      "type": "Feature",
      "properties": {
        "name": "Pulicat Lake",
        "wb_name": "Pulicat Lake",
        "type": "Lagoon"
      },
      "geometry": {
        "type": "Polygon",
        "coordinates": [[
          [80.08, 13.35], [80.18, 13.35], [80.22, 13.20],
          [80.18, 13.10], [80.08, 13.10], [80.04, 13.20],
          [80.08, 13.35]
        ]]
      }
    },
    {
      "type": "Feature",
      "properties": {
        "name": "Cauvery River (Main Channel)",
        "wb_name": "Cauvery River",
        "type": "River"
      },
      "geometry": {
        "type": "Polygon",
        "coordinates": [[
          [78.80, 10.90], [78.85, 10.90], [79.50, 11.05],
          [79.90, 11.10], [79.90, 11.05], [79.50, 11.00],
          [78.85, 10.85], [78.80, 10.90]
        ]]
      }
    }
  ]
}
